{"type": "FeatureCollection", "features": [{"type": "Feature", "properties": {"norad_id": 25590, "name": "COSMOS 2361", "group": "musson", "lat": -59.67930137934066, "lon": -31.976314491081435, "alt_km": 980.5664672838238, "timestamp": "2025-12-17T21:39:45.957627+00:00", "meta": {"OBJECT_NAME": "COSMOS 2361", "OBJECT_ID": "1998-076A", "EPOCH": "2025-12-17T12:01:13.966176", "MEAN_MOTION": 13.73218118, "ECCENTRICITY": 0.00301022, "INCLINATION": 82.934, "RA_OF_ASC_NODE": 340.5647, "ARG_OF_PERICENTER": 251.8047, "MEAN_ANOMALY": 222.5456, "EPHEMERIS_TYPE": 0, "CLASSIFICATION_TYPE": "U", "NORAD_CAT_ID": 25590, "ELEMENT_SET_NO": 999, "REV_AT_EPOCH": 35176, "BSTAR": 6.5487366e-05, "MEAN_MOTION_DOT": 7.6e-07, "MEAN_MOTION_DDOT": 0}, "tle": {"line1": "1 25590U 98076A   25351.50085609  .00000076  00000+0  65487-4 0  9996", "line2": "2 25590  82.9340 340.5647 0030102 251.8047 222.5456 13.73218118351764"}}, "geometry": {"type": "Point", "coordinates": [-31.976314491081435, -59.67930137934066]}}, {"type": "Feature", "properties": {"norad_id": 26818, "name": "COSMOS 2378", "group": "musson", "lat": 28.696462785458888, "lon": -0.206578808499491, "alt_km": 1006.1586436544158, "timestamp": "2025-12-17T21:39:45.957646+00:00", "meta": {"OBJECT_NAME": "COSMOS 2378", "OBJECT_ID": "2001-023A", "EPOCH": "2025-12-17T13:22:03.961056", "MEAN_MOTION": 13.74142424, "ECCENTRICITY": 0.00327007, "INCLINATION": 82.9271, "RA_OF_ASC_NODE": 356.1527, "ARG_OF_PERICENTER": 191.3164, "MEAN_ANOMALY": 289.0235, "EPHEMERIS_TYPE": 0, "CLASSIFICATION_TYPE": "U", "NORAD_CAT_ID": 26818, "ELEMENT_SET_NO": 999, "REV_AT_EPOCH": 22989, "BSTAR": 4.9368059e-05, "MEAN_MOTION_DOT": 6.2e-07, "MEAN_MOTION_DDOT": 0}, "tle": {"line1": "1 26818U 01023A   25351.55699029  .00000062  00000+0  49368-4 0  9993", "line2": "2 26818  82.9271 356.1527 0032700 191.3164 289.0235 13.74142424229893"}}, "geometry": {"type": "Point", "coordinates": [-0.206578808499491, 28.696462785458888]}}, {"type": "Feature", "properties": {"norad_id": 27436, "name": "COSMOS 2389", "group": "musson", "lat": -73.13512262462578, "lon": 147.25200050643525, "alt_km": 1019.2909650378633, "timestamp": "2025-12-17T21:39:45.957657+00:00", "meta": {"OBJECT_NAME": "COSMOS 2389", "OBJECT_ID": "2002-026A", "EPOCH": "2025-12-17T16:01:43.938624", "MEAN_MOTION": 13.75155201, "ECCENTRICITY": 0.00474751, "INCLINATION": 82.9506, "RA_OF_ASC_NODE": 303.3364, "ARG_OF_PERICENTER": 47.3519, "MEAN_ANOMALY": 126.0454, "EPHEMERIS_TYPE": 0, "CLASSIFICATION_TYPE": "U", "NORAD_CAT_ID": 27436, "ELEMENT_SET_NO": 999, "REV_AT_EPOCH": 18216, "BSTAR": 3.7759431e-05, "MEAN_MOTION_DOT": 5.2e-07, "MEAN_MOTION_DDOT": 0}, "tle": {"line1": "1 27436U 02026A   25351.66786966  .00000052  00000+0  37759-4 0  9993", "line2": "2 27436  82.9506 303.3364 0047475  47.3519 126.0454 13.75155201182162"}}, "geometry": {"type": "Point", "coordinates": [147.25200050643525, -73.13512262462578]}}, {"type": "Feature", "properties": {"norad_id": 27818, "name": "COSMOS 2398", "group": "musson", "lat": 23.25315466512696, "lon": 85.8451128393704, "alt_km": 977.8550161312205, "timestamp": "2025-12-17T21:39:45.957668+00:00", "meta": {"OBJECT_NAME": "COSMOS 2398", "OBJECT_ID": "2003-023A", "EPOCH": "2025-12-17T07:28:07.757760", "MEAN_MOTION": 13.72386161, "ECCENTRICITY": 0.00327048, "INCLINATION": 82.9484, "RA_OF_ASC_NODE": 269.3296, "ARG_OF_PERICENTER": 99.5637, "MEAN_ANOMALY": 16.281, "EPHEMERIS_TYPE": 0, "CLASSIFICATION_TYPE": "U", "NORAD_CAT_ID": 27818, "ELEMENT_SET_NO": 999, "REV_AT_EPOCH": 12879, "BSTAR": 3.662827e-05, "MEAN_MOTION_DOT": 4.9e-07, "MEAN_MOTION_DDOT": 0}, "tle": {"line1": "1 27818U 03023A   25351.31120090  .00000049  00000+0  36628-4 0  9997", "line2": "2 27818  82.9484 269.3296 0032704  99.5637  16.2810 13.72386161128798"}}, "geometry": {"type": "Point", "coordinates": [85.8451128393704, 23.25315466512696]}}, {"type": "Feature", "properties": {"norad_id": 28380, "name": "COSMOS 2407", "group": "musson", "lat": 64.00746675106832, "lon": -136.24879230514082, "alt_km": 943.7971299412284, "timestamp": "2025-12-17T21:39:45.957678+00:00", "meta": {"OBJECT_NAME": "COSMOS 2407", "OBJECT_ID": "2004-028A", "EPOCH": "2025-12-17T14:39:08.351712", "MEAN_MOTION": 13.76314255, "ECCENTRICITY": 0.00401334, "INCLINATION": 82.96, "RA_OF_ASC_NODE": 209.2865, "ARG_OF_PERICENTER": 41.5986, "MEAN_ANOMALY": 16.7048, "EPHEMERIS_TYPE": 0, "CLASSIFICATION_TYPE": "U", "NORAD_CAT_ID": 28380, "ELEMENT_SET_NO": 999, "REV_AT_EPOCH": 7490, "BSTAR": 6.9818091e-05, "MEAN_MOTION_DOT": 8.4e-07, "MEAN_MOTION_DDOT": 0}, "tle": {"line1": "1 28380U 04028A   25351.61051333  .00000084  00000+0  69818-4 0  9990", "line2": "2 28380  82.9600 209.2865 0040133  41.5986  16.7048 13.76314255 74907"}}, "geometry": {"type": "Point", "coordinates": [-136.24879230514082, 64.00746675106832]}}, {"type": "Feature", "properties": {"norad_id": 28521, "name": "COSMOS 2414", "group": "musson", "lat": -3.8332446189287226, "lon": 1.2309568473396253, "alt_km": 923.564389696282, "timestamp": "2025-12-17T21:39:45.957688+00:00", "meta": {"OBJECT_NAME": "COSMOS 2414", "OBJECT_ID": "2005-002A", "EPOCH": "2025-12-17T13:51:47.241504", "MEAN_MOTION": 13.87903641, "ECCENTRICITY": 0.00411496, "INCLINATION": 82.9489, "RA_OF_ASC_NODE": 181.0016, "ARG_OF_PERICENTER": 126.19, "MEAN_ANOMALY": 234.308, "EPHEMERIS_TYPE": 0, "CLASSIFICATION_TYPE": "U", "NORAD_CAT_ID": 28521, "ELEMENT_SET_NO": 999, "REV_AT_EPOCH": 5862, "BSTAR": 6.1318131e-05, "MEAN_MOTION_DOT": 9e-07, "MEAN_MOTION_DDOT": 0}, "tle": {"line1": "1 28521U 05002A   25351.57763011  .00000090  00000+0  61318-4 0  9992", "line2": "2 28521  82.9489 181.0016 0041149 126.1900 234.3080 13.87903641 58628"}}, "geometry": {"type": "Point", "coordinates": [1.2309568473396253, -3.8332446189287226]}}, {"type": "Feature", "properties": {"norad_id": 32052, "name": "COSMOS 2429", "group": "musson", "lat": 78.57701520299189, "lon": 17.07583920143569, "alt_km": 958.2448547361528, "timestamp": "2025-12-17T21:39:45.957698+00:00", "meta": {"OBJECT_NAME": "COSMOS 2429", "OBJECT_ID": "2007-038A", "EPOCH": "2025-12-17T10:47:44.609568", "MEAN_MOTION": 13.75149888, "ECCENTRICITY": 0.00389885, "INCLINATION": 82.9804, "RA_OF_ASC_NODE": 339.8362, "ARG_OF_PERICENTER": 24.9715, "MEAN_ANOMALY": 335.3316, "EPHEMERIS_TYPE": 0, "CLASSIFICATION_TYPE": "U", "NORAD_CAT_ID": 32052, "ELEMENT_SET_NO": 999, "REV_AT_EPOCH": 91667, "BSTAR": 5.6060819e-05, "MEAN_MOTION_DOT": 6.9e-07, "MEAN_MOTION_DDOT": 0}, "tle": {"line1": "1 32052U 07038A   25351.44982187  .00000069  00000+0  56061-4 0  9995", "line2": "2 32052  82.9804 339.8362 0038988  24.9715 335.3316 13.75149888916670"}}, "geometry": {"type": "Point", "coordinates": [17.07583920143569, 78.57701520299189]}}, {"type": "Feature", "properties": {"norad_id": 35635, "name": "COSMOS 2454", "group": "musson", "lat": -82.87773942027034, "lon": 82.99702490258713, "alt_km": 948.9733641712255, "timestamp": "2025-12-17T21:39:45.957708+00:00", "meta": {"OBJECT_NAME": "COSMOS 2454", "OBJECT_ID": "2009-039A", "EPOCH": "2025-12-17T13:45:12.079008", "MEAN_MOTION": 13.89929231, "ECCENTRICITY": 0.00203389, "INCLINATION": 82.9553, "RA_OF_ASC_NODE": 164.9809, "ARG_OF_PERICENTER": 60.7927, "MEAN_ANOMALY": 2.2667, "EPHEMERIS_TYPE": 0, "CLASSIFICATION_TYPE": "U", "NORAD_CAT_ID": 35635, "ELEMENT_SET_NO": 999, "REV_AT_EPOCH": 83217, "BSTAR": 5.0529538e-05, "MEAN_MOTION_DOT": 7.8e-07, "MEAN_MOTION_DDOT": 0}, "tle": {"line1": "1 35635U 09039A   25351.57305647  .00000078  00000+0  50530-4 0  9997", "line2": "2 35635  82.9553 164.9809 0020338  60.7927   2.2667 13.89929231832171"}}, "geometry": {"type": "Point", "coordinates": [82.99702490258713, -82.87773942027034]}}, {"type": "Feature", "properties": {"norad_id": 36519, "name": "COSMOS 2463", "group": "musson", "lat": -27.45966804440434, "lon": 19.237305981535435, "alt_km": 986.1940959370331, "timestamp": "2025-12-17T21:39:45.957717+00:00", "meta": {"OBJECT_NAME": "COSMOS 2463", "OBJECT_ID": "2010-017A", "EPOCH": "2025-12-17T15:21:21.716352", "MEAN_MOTION": 13.71649589, "ECCENTRICITY": 0.00347342, "INCLINATION": 82.9608, "RA_OF_ASC_NODE": 23.1117, "ARG_OF_PERICENTER": 273.9318, "MEAN_ANOMALY": 201.2824, "EPHEMERIS_TYPE": 0, "CLASSIFICATION_TYPE": "U", "NORAD_CAT_ID": 36519, "ELEMENT_SET_NO": 999, "REV_AT_EPOCH": 78304, "BSTAR": 6.1469663e-05, "MEAN_MOTION_DOT": 7e-07, "MEAN_MOTION_DDOT": 0}, "tle": {"line1": "1 36519U 10017A   25351.63983468  .00000070  00000+0  61470-4 0  9994", "line2": "2 36519  82.9608  23.1117 0034734 273.9318 201.2824 13.71649589783042"}}, "geometry": {"type": "Point", "coordinates": [19.237305981535435, -27.45966804440434]}}]}